#cP2015  5 30  0  0  0.00000000      96 ORBIT IGb08 HLM  IGS
## 1846 518400.00000000   900.00000000 57172 0.0000000000000
+   32   G01G02G03G04G05G06G07G08G09G10G11G12G13G14G15G16G17
+        G18G19G20G21G22G23G24G25G26G27G28G29G30G31G32  0  0
+          0  0  0  0  0  0  0  0  0  0  0  0  0  0  0  0  0
+          0  0  0  0  0  0  0  0  0  0  0  0  0  0  0  0  0
+          0  0  0  0  0  0  0  0  0  0  0  0  0  0  0  0  0
++         2  2  2  2  2  2  2  0  2  2  2  3  2  2  2  3  2
++         2  2  2  2  2  3  2  2  2  2  2  3  2  2  2  0  0
++         0  0  0  0  0  0  0  0  0  0  0  0  0  0  0  0  0
++         0  0  0  0  0  0  0  0  0  0  0  0  0  0  0  0  0
++         0  0  0  0  0  0  0  0  0  0  0  0  0  0  0  0  0
%c G  cc GPS ccc cccc cccc cccc cccc ccccc ccccc ccccc ccccc
%c cc cc ccc ccc cccc cccc cccc cccc ccccc ccccc ccccc ccccc
%f  1.2500000  1.025000000  0.00000000000  0.000000000000000
%f  0.0000000  0.000000000  0.00000000000  0.000000000000000
%i    0    0    0    0      0      0      0      0         0
%i    0    0    0    0      0      0      0      0         0
/* RAPID ORBIT COMBINATION FROM WEIGHTED AVERAGE OF:        
/* cod emr esa gfz jpl ngs sio usn whu                      
/* REFERENCED TO IGS TIME (IGST) AND TO WEIGHTED MEAN POLE: 
/* PCV:IGS08_1844 OL/AL:FES2004  NONE     Y  ORB:CMB CLK:CMB
*  2015  5 30 12 45  0.00000000
PG01 -20259.850178  -9400.010164  14467.706043     -4.938791  7  5  5  75       
PG02  14227.592262  22249.999392   4925.726835    568.990043  7  6  5  85       
PG03 -16204.151112    893.457741  21047.054282    339.568328  7  4  6  87       
PG04 -19680.140336 -16874.670389   6065.899426    -16.902276  8  3  6  77       
PG05   6394.170268  18781.979052 -17615.854156   -235.398484  9  6  8 100       
PG06   1918.969455  20749.953751  16475.070531    172.866613  5  5  5 127       
PG07 -15115.194473   4297.875519 -21363.643659    465.497263  9  4  6  97       
PG08   7160.027129 -25076.694768  -4497.977252 999999.999999
PG09 -25165.593444   7195.003287  -4588.477104   -163.855371 10  5  7  59       
PG10  -8396.882211  24898.639105  -2018.117740   -176.973551  7  5  5  75       
PG11 -24061.539404  -9774.846918   5336.675822   -581.671581  9  7  7 104       
PG12  14477.059117   2938.224921  21953.802426    297.237165 10  7  7  78       
PG13  12731.669541  12794.825834 -19584.765277   -118.940999  9  5  4 103       
PG14  11606.030262 -14251.598381  19357.677043     59.716578  7  4  7 101       
PG15  22801.532804   5204.182011 -12971.153281   -252.142586  8  8  5 107       
PG16  -4213.122128 -18913.682597 -18063.567126   -124.026837  9  6  7 118       
PG17 -11543.885592  14439.726518  19287.167212   -173.592368  6  3  6  49       
PG18  15015.382891 -19055.333608  -9953.814109    405.431929  8  8  7 109       
PG19 -20689.293803  -8886.172914 -14643.988303   -511.946960  8  3  9  71       
PG20  11902.809807  12819.915376 -20167.425021    324.858026  9  4  8 137       
PG21  13956.240663  -7213.096315 -20741.923956   -450.781042  7  8  6 100       
PG22   8696.968547 -24989.924751    671.716098    355.703807  9  5  7  95       
PG23 -26233.442958   -193.218560   5601.268742   -111.655695 11  4  7  50       
PG24  20689.709596  11554.407916  12104.258981    -49.123304  7  5  6  93       
PG25  16761.393876 -11147.336175  17140.491717    -34.473784  7  4  7  81       
PG26   2530.509081 -24704.334866  -9420.726597     30.693255  9  3  6 113       
PG27 -10509.923542 -12850.137841 -20776.789260     75.590122  7  6  7 102       
PG28 -12703.718843  23075.733997  -2369.432680    443.360438  8  2  7 108       
PG29  25966.472399  -4555.981001  -2985.829788    613.634004 11  7  7 118       
PG30  -7472.861368  14922.047157 -20660.464676    -51.990398  9  5  6  73       
PG31  -4292.099476 -21902.876665  14261.550278    314.419518  7  4  2 100       
PG32  -9128.987507 -14622.142696  20318.757708   -138.194494  6  3  6  76       
*  2015  5 30 13  0  0.00000000
PG01 -21100.538087 -10689.638738  12219.809075     -4.938334  7  5  5  74       
PG02  13585.702647  21931.884252   7594.846132    568.991967  6  5  5  97       
PG03 -15435.701924  -1418.798030  21585.983749    339.576040  7  3  6  88       
PG04 -19839.902402 -17496.207386   3336.665258    -16.904003  8  3  6 102       
PG05   5582.559225  20528.594707 -15831.965505   -235.394172  8  6  8 114       
PG06    512.313105  19343.821831  18199.091191    172.874695  5  5  5 127       
PG07 -16597.731726   2394.914856 -20583.336734    465.499811  9  4  6 100       
PG08   7469.738007 -25312.452306  -1612.431305 999999.999999
PG09 -25570.527578   7007.688105  -1770.433796   -163.860135  9  5  4  48       
PG10  -8730.335528  24807.619815    821.842576   -176.974272  8  5  5  80       
PG11 -24298.353511 -10407.252732   2680.873840   -581.674269  9  7  7  96       
PG12  13536.189121   5295.368446  22129.942230    297.239954  9  7  7  75       
PG13  10465.492975  13049.007329 -20744.117500   -118.944220  9  4  4 126       
PG14  13694.384860 -14347.515262  17829.704145     59.713947  7  5  7  97       
PG15  21310.148111   5790.448065 -15072.131482   -252.144489  7  8  6 125       
PG16  -3325.569583 -20659.726371 -16201.433446   -124.023428  9  6  8 113       
PG17 -13607.711165  14603.435467  17712.707560   -173.594020  5  3  6  64       
PG18  14905.162110 -17659.612907 -12324.537041    405.434576  8  8  7 108       
PG19 -18967.519483  -9170.074131 -16646.307962   -511.947732  7  4  8  74       
PG20  11182.391155  14926.711366 -19083.739996    324.861244  9  4  8 140       
PG21  15566.198530  -5305.687786 -20215.128384   -450.784457  7  7  6 109       
PG22   9020.704793 -24768.072294  -2114.639660    355.707709  9  6  7 102       
PG23 -25521.028329   -565.402927   8259.997447   -111.657791 10  5  7  95       
PG24  21342.209595  12641.614956   9656.747278    -49.124437  7  5  6  86       
PG25  16189.188655  -9147.381594  18799.833310    -34.477310  8  5  7  84       
PG26   3062.588310 -25498.419185  -6771.354682     30.693040  9  2  6 110       
PG27  -8150.839333 -13350.881189 -21498.105001     75.592482  6  6  7  94       
PG28 -12671.460693  22538.261657  -5242.184881    443.362897  8  2  6 115       
PG29  26173.137323  -4358.971992   -108.817656    613.636251 11  7  8  96       
PG30  -8949.501806  13023.859465 -21352.162035    -51.984976  9  5  6 101       
PG31  -3072.556541 -20650.080899  16343.570241    314.418604  6  4    101       
PG32  -8119.511999 -16641.583008  19211.631070   -138.185796  6  3  6  90       
*  2015  5 30 13 15  0.00000000
PG01 -21824.768791 -11739.529521   9763.095701     -4.937879  7  5  5  78       
PG02  12723.663402  21442.883123  10138.057244    568.994182  5  6  5  95       
PG03 -14777.080543  -3806.543969  21754.107410    339.583755  8  3  6  94       
PG04 -19813.489390 -17886.201364    550.622842    -16.906070  8  4  6  72       
PG05   4916.749091  22105.248978 -13774.354110   -235.390130  8  4  8 110       
PG06  -1089.225402  17885.488049  19610.078353    172.882784  5  6  5  84       
PG07 -18104.674426    657.403269 -19448.427832    465.501638  9  6  7  80       
PG08   7669.810711 -25248.486417   1301.223651 999999.999999
PG09 -25673.793820   6763.329015   1078.037912   -163.864923  9  6  4  72       
PG10  -8977.921892  24421.822978   3647.214940   -176.976578  8  6  5  89       
PG11 -24294.662504 -10889.974863    -21.074396   -581.676517  9  8  8  87       
PG12  12730.968814   7697.976360  21921.694944    297.242590  9  7  7  95       
PG13   8108.240984  13440.601935 -21550.039125   -118.947180  8  3  3 121       
PG14  15590.752578 -14522.888349  15998.686943     59.711473  8  6  7 102       
PG15  19636.393453   6511.822014 -16918.794124   -252.146351  6  8  6 126       
PG16  -2613.033530 -22239.965080 -14057.481286   -124.019726  9  6  8 103       
PG17 -15472.589500  14840.125707  15837.753069   -173.595883  3  3  6  82       
PG18  14791.496633 -16007.827862 -14474.035235    405.437450  7  8  7 102       
PG19 -17056.567634  -9579.235812 -18371.329719   -511.948955  6  4  8  63       
PG20  10590.246108  16930.365975 -17676.213285    324.864414  9  3  8 120       
PG21  17200.836418  -3537.545383 -19320.110550   -450.787283  7  7  6  73       
PG22   9273.824068 -24258.247895  -4864.097311    355.711016  9  6  8 103       
PG23 -24547.494985  -1041.372613  10780.803617   -111.660042 10  5  8  92       
PG24  21848.428087  13490.646689   7044.118550    -49.124349  7  5  6  67       
PG25  15679.447412  -6955.956930  20131.341806    -34.480829  8  5  7  85       
PG26   3468.305908 -26024.396311  -4005.428308     30.692875  9  2  6  97       
PG27  -5761.861039 -13991.796792 -21850.610268     75.594883  4  6  7  93       
PG28 -12561.819841  21692.165900  -8022.817215    443.365503  9  2  6 119       
PG29  26069.194851  -4112.126821   2770.076566    613.638214 11  8  9  90       
PG30 -10557.775845  11160.167437 -21676.603976    -51.979606 10  4  6 100       
PG31  -1642.088372 -19302.614685  18142.877090    314.417460  4  3     93       
PG32  -7266.578657 -18572.251165  17778.413111   -138.177268  5  2  6  80       
EOF
